#aV2015  1 23  0  0  0.00000000     288 DD+AD WGS84 FIT  NGA
## 1828 432000.00000000   300.00000000 57045 0.0000000000000
+   31     1  2  3  4  5  6  7  8  9 10 11 12 13 14 15 16 17
+         18 19 20 21 22 23 24 25 27 28 29 30 31 32  0  0  0
+          0  0  0  0  0  0  0  0  0  0  0  0  0  0  0  0  0
+          0  0  0  0  0  0  0  0  0  0  0  0  0  0  0  0  0
+          0  0  0  0  0  0  0  0  0  0  0  0  0  0  0  0  0
++         2  2  2  2  2  2  2  2  2  2  2  2  2  2  2  2  2
++         2  2  2  2  2  2  2  2  2  2  2  2  2  2  0  0  0
++         0  0  0  0  0  0  0  0  0  0  0  0  0  0  0  0  0
++         0  0  0  0  0  0  0  0  0  0  0  0  0  0  0  0  0
++         0  0  0  0  0  0  0  0  0  0  0  0  0  0  0  0  0
%c cc cc ccc ccc cccc cccc cccc cccc ccccc ccccc ccccc ccccc
%c cc cc ccc ccc cccc cccc cccc cccc ccccc ccccc ccccc ccccc
%f  0.0000000  0.000000000  0.00000000000  0.000000000000000
%f  0.0000000  0.000000000  0.00000000000  0.000000000000000
%i    0    0    0    0      0      0      0      0         0
%i    0    0    0    0      0      0      0      0         0
/*      NGA, ST. LOUIS,MO.                                  
/*   EPHEMERIS COMPUTED FROM  1 DAYS OF DATA                
/*   EPOCHA SMOOTHER                                       
/* CCCCCCCCCCCCCCCCCCCCCCCCCCCCCCCCCCCCCCCCCCCCCCCCCCCCCCCCC
*  2015  1 23 16 35  0.00000000
P  1 -13109.118960  22814.093569  -2930.641038     -9.843815                    
V  1  -4463.160102   1404.329748  31604.271017      0.004328                    
P  2  18946.122868  -7531.111528 -16429.028864    543.603775                    
V  2  -9456.228149  19753.648234 -20033.218170      0.022618                    
P  3 -11213.833625  13331.771207 -20058.952104    166.786905                    
V  3 -25335.457122  -2835.112572  12231.294928      0.236504                    
P  4 -17745.487916  18325.287630   6577.084891     -6.063001                    
V  4   1842.132623  -9367.419757  29920.209883     -0.005694                    
P  5  25669.440740  -3032.167348   6453.428131   -288.917949                    
V  5   8034.471693   3504.713981 -29881.612196      0.052156                    
P  6  13522.071989   7058.263440 -21751.812108     59.925154                    
V  6 -15217.322681  23020.370762  -2007.676732      0.113020                    
P  7  -3438.101022  21893.720432  14467.568736    434.080601                    
V  7 -12294.362454  13740.061569 -24221.146031      0.033168                    
P  8 -19702.884622   6846.532387 -15811.078511     17.263617                    
V  8  12424.131922 -16622.765926 -22990.559597      0.001000                    
P  9   6247.904963  24687.581903  -7536.766885    -64.149525                    
V  9  -6673.982401  -7377.110536 -29735.601764     -0.119593                    
P 10  22324.634861   9988.321226 -11244.357544   -160.055304                    
V 10 -13760.514375   1440.893174 -26533.019234     -0.016943                    
P 11 -11408.384534  22859.610631   6461.090371   -552.856411                    
V 11  -2447.799418  -9949.486706  28728.187602     -0.026716                    
P 12  14388.611833 -11161.723567 -19332.775002    263.648466                    
V 12  24108.470889   3791.106263  16029.930546      0.030512                    
P 13  15001.072787  -1717.722248  21689.250845    -81.492285                    
V 13   9050.649618  26362.915250  -4261.924338     -0.035690                    
P 14 -15044.716656 -19535.936306  -9833.203540     94.132610                    
V 14  -2598.676536 -12700.089090  28399.102647     -0.035201                    
P 15   8382.746564 -15310.012292  19851.143271   -228.034454                    
V 15  13528.165773  21757.556460  11337.619769     -0.022354                    
P 16 -25883.064645    974.916894   6655.991265   -162.540232                    
V 16  -8145.892908  -2619.972402 -30657.970049      0.031955                    
P 17  14741.568373  20754.439529  -7679.269968   -151.650398                    
V 17   1982.331102  10118.966559  29815.805516     -0.024349                    
P 18  -9883.367294 -15451.282040  19780.808634    374.360000                    
V 18  24185.906205    -16.758724  12056.809427      0.027084                    
P 19 -12020.516158   9753.327510  21350.610731   -497.767596                    
V 19 -10374.604051 -25550.124307   6226.679278     -0.014896                    
P 20   6384.216246  15601.567736 -20752.217313    281.845165                    
V 20 -26012.990677    854.927760  -7333.261222      0.041714                    
P 21  -2822.683757 -19854.211536  17894.127425   -408.749917                    
V 21  13637.107917 -16943.177308 -17715.133062     -0.041861                    
P 22 -21414.227658 -10393.869147  12174.935301    310.440481                    
V 22  15299.948445  -2281.356969  25244.354846      0.038294                    
P 23  -2641.319734  20810.229219 -15901.846901    -83.733874                    
V 23 -11139.910081 -17544.941104 -21358.175535     -0.026556                    
P 24  14673.435146 -22046.042793    311.045684    -42.251379                    
V 24   2382.320625   2065.685462  31713.544953     -0.005473                    
P 25     -5.199567 -14911.815369 -22063.395936      1.330354                    
V 25  27701.239694   1874.834460  -1127.803111     -0.025422                    
P 27 -16469.168051   -866.700297  20829.185188     46.363063                    
V 27 -10978.174267 -24057.559117  -9589.860269      0.026711                    
P 28  17055.704856  13158.131953  16229.211124    414.493895                    
V 28 -19331.873788  -1563.343361  22361.613727      0.026309                    
P 29  -2714.481010 -24355.346555 -10257.298897    587.723962                    
V 29   7074.854079  11168.303008 -28263.836099      0.023231                    
P 30   5495.132790  16145.398569  20347.022239    -86.271590                    
V 30 -16855.308806  19645.647605 -11081.437888      0.003998                    
P 31 -14956.683604  -4058.334612 -21472.899343    324.880420                    
V 31  15816.131166 -22503.843757  -6390.742960     -0.007821                    
P 32 -22319.777913   5809.529892 -12676.015436   -240.839084                    
V 32 -15687.728077  -5470.730242  25662.284292      0.088614                    
EOF
